{
    "links": {
        "self": "http://www.neowsapp.com/rest/v1/neo/3635121?api_key=iIulBulltgU6a56xZRHN4H3l9WmuAYTsLGpBGhQ2"
    },
    "id": "3635121",
    "neo_reference_id": "3635121",
    "name": "(2013 HT14)",
    "designation": "2013 HT14",
    "nasa_jpl_url": "http://ssd.jpl.nasa.gov/sbdb.cgi?sstr=3635121",
    "absolute_magnitude_h": 26.3,
    "estimated_diameter": {
        "kilometers": {
            "estimated_diameter_min": 0.0146067964,
            "estimated_diameter_max": 0.0326617897
        },
        "meters": {
            "estimated_diameter_min": 14.6067964271,
            "estimated_diameter_max": 32.6617897446
        },
        "miles": {
            "estimated_diameter_min": 0.0090762397,
            "estimated_diameter_max": 0.020295089
        },
        "feet": {
            "estimated_diameter_min": 47.92256199,
            "estimated_diameter_max": 107.1581062656
        }
    },
    "is_potentially_hazardous_asteroid": false,
    "close_approach_data": [
        {
            "close_approach_date": "2013-04-18",
            "close_approach_date_full": "2013-Apr-18 04:46",
            "epoch_date_close_approach": 1366260360000,
            "relative_velocity": {
                "kilometers_per_second": "20.1855885917",
                "kilometers_per_hour": "72668.1189302359",
                "miles_per_hour": "45153.1431208458"
            },
            "miss_distance": {
                "astronomical": "0.005264016",
                "lunar": "2.047702224",
                "kilometers": "787485.58124592",
                "miles": "489320.850076896"
            },
            "orbiting_body": "Moon"
        },
        {
            "close_approach_date": "2013-04-18",
            "close_approach_date_full": "2013-Apr-18 04:58",
            "epoch_date_close_approach": 1366261080000,
            "relative_velocity": {
                "kilometers_per_second": "21.1526085743",
                "kilometers_per_hour": "76149.3908675934",
                "miles_per_hour": "47316.2701199221"
            },
            "miss_distance": {
                "astronomical": "0.0056626764",
                "lunar": "2.2027811196",
                "kilometers": "847124.327939268",
                "miles": "526378.6488791784"
            },
            "orbiting_body": "Earth"
        }
    ],
    "orbital_data": {
        "orbit_id": "7",
        "orbit_determination_date": "2017-04-06 08:46:01",
        "first_observation_date": "2013-04-21",
        "last_observation_date": "2013-05-07",
        "data_arc_in_days": 16,
        "observations_used": 24,
        "orbit_uncertainty": "8",
        "minimum_orbit_intersection": ".00142778",
        "jupiter_tisserand_invariant": "3.359",
        "epoch_osculation": "2456408.5",
        "eccentricity": ".7194388645694978",
        "semi_major_axis": "2.096407687323757",
        "inclination": "5.795837421485456",
        "ascending_node_longitude": "30.79743331660832",
        "orbital_period": "1108.69488064035",
        "perihelion_distance": ".5881705210807865",
        "perihelion_argument": "87.6952983504091",
        "aphelion_distance": "3.604644853566727",
        "perihelion_time": "2456353.924346418840",
        "mean_anomaly": "17.72104808301264",
        "mean_motion": ".3247061083136548",
        "equinox": "J2000",
        "orbit_class": {
            "orbit_class_type": "APO",
            "orbit_class_description": "Near-Earth asteroid orbits which cross the Earth’s orbit similar to that of 1862 Apollo",
            "orbit_class_range": "a (semi-major axis) > 1.0 AU; q (perihelion) < 1.017 AU"
        }
    },
    "is_sentry_object": false
}